0 FENGYUN 1C DEB
1 32198U 99025CUU 21061.00514562  .00000219  00000-0  17528-3 0  9999
2 32198  98.3703 336.2760 0100228 189.3001 170.6311 13.97483755324782
0 FENGYUN 1C DEB
1 32197U 99025CUT 21061.50303616  .00000167  00000-0  76091-4 0  9992
2 32197  99.0706 254.7435 0172643 259.3291 128.4568 14.27616575694770
0 FENGYUN 1C DEB
1 32192U 99025CUN 21061.39571709  .00000061  00000-0  83880-4 0  9991
2 32192  98.6155  49.9458 0184568 206.9179 152.2309 13.80727200686011
0 FENGYUN 1C DEB
1 32191U 99025CUM 21060.88471193  .00000604  00000-0  32441-3 0  9998
2 32191  98.8617 114.9820 0109834 149.7261 211.0318 14.13578062397492
0 FENGYUN 1C DEB
1 32190U 99025CUL 21060.02956463  .00001451  00000-0  36365-3 0  9991
2 32190  98.9434 353.3222 0059620 279.2347  80.2106 14.52050833458229
0 FENGYUN 1C DEB
1 32189U 99025CUK 21060.99070654  .00001645  00000-0  75784-3 0  9997
2 32189  98.9871 126.4713 0033046  36.2868 324.0541 14.22221879395105
0 FENGYUN 1C DEB
1 32187U 99025CUH 21060.61147316  .00000072  00000-0  13780-3 0  9995
2 32187  99.4346 197.1796 0297125 193.4506 232.3370 13.48963722426920
0 FENGYUN 1C DEB
1 32186U 99025CUG 21060.28408395  .00000258  00000-0  24845-3 0  9994
2 32186  99.7341  64.8920 0285762  47.4241 326.5814 13.72232068682117
0 FENGYUN 1C DEB
1 32185U 99025CUF 21060.76266733  .00003873  00000-0  73640-3 0  9997
2 32185  98.8066 180.4782 0474913 157.7488 204.5066 14.11391703698956
0 FENGYUN 1C DEB
1 32184U 99025CUE 21060.95264436  .00000807  00000-0  95531-4 0  9993
2 32184  98.1525 143.2299 0257841 284.7374  72.5388 14.66891708724648
0 FENGYUN 1C DEB
1 32183U 99025CUD 21060.96104010  .00000014  00000-0  35034-4 0  9996
2 32183  98.8861 136.2149 0042928 290.0307  69.6243 14.05663463481956
0 FENGYUN 1C DEB
1 32181U 99025CUB 21060.44307094  .00000374  00000-0  12540-3 0  9999
2 32181  99.4991 294.3068 0093762 176.5878 309.7976 14.41597228714577
0 FENGYUN 1C DEB
1 32180U 99025CUA 21061.17243056 -.00000003  00000-0  37296-4 0  9992
2 32180  99.6118  41.3152 0138053 119.4983 253.2224 13.81784893701438
0 FENGYUN 1C DEB
1 32179U 99025CTZ 21060.85800130  .00000291  00000-0  20005-3 0  9993
2 32179  99.1494 102.4741 0147103 356.8075 177.1996 14.02247692412362
0 FENGYUN 1C DEB
1 32178U 99025CTY 21060.89760993  .00000433  00000-0  24828-3 0  9993
2 32178 100.2819 131.2104 0107766  35.3959 325.4300 14.12922933392734
0 FENGYUN 1C DEB
1 32176U 99025CTW 21061.65118028  .00000942  00000-0  29931-3 0  9997
2 32176  99.4179 217.2534 0064746 199.5635 160.3066 14.41455259361102
0 FENGYUN 1C DEB
1 32175U 99025CTV 21061.41589815  .00000546  00000-0  48694-3 0  9993
2 32175  98.8471 126.1597 0168744  29.6991 331.3617 13.82350226356363
0 FENGYUN 1C DEB
1 32174U 99025CTU 21060.45131356  .00000115  00000-0  72885-4 0  9990
2 32174  98.7550 144.1386 0159354 212.1506 146.9873 14.14953268393774
0 FENGYUN 1C DEB
1 32173U 99025CTT 21061.47410605  .00001056  00000-0  46786-3 0  9994
2 32173  99.5747 163.6276 0073017  86.5190 274.4334 14.24106983705093
0 FENGYUN 1C DEB
1 32172U 99025CTS 21061.73446504  .00000759  00000-0  11649-3 0  9998
2 32172  99.0998 258.9447 0149592  78.2802 283.5142 14.70006187722906
0 FENGYUN 1C DEB
1 32171U 99025CTR 21060.64991038  .00000190  00000-0  25151-3 0  9995
2 32171 102.8166 216.6770 0536868 128.4890 301.4958 13.27956738659480
0 FENGYUN 1C DEB
1 32170U 99025CTQ 21061.89065566  .00011176  00000-0  82901-3 0  9992
2 32170  99.0921 302.2943 0041713  63.6274 296.9219 15.02597141731769
0 FENGYUN 1C DEB
1 32169U 99025CTP 21061.49790169  .00001096  00000-0  51611-3 0  9994
2 32169  98.5198 250.3859 0080394 247.7228 111.5410 14.20229550715984
0 FENGYUN 1C DEB
1 32168U 99025CTN 21061.26608832  .00000613  00000-0  56398-3 0  9994
2 32168 101.6636  78.6649 0285433 132.9070 229.6410 13.71024862394501
0 FENGYUN 1C DEB
1 32167U 99025CTM 21060.80237451  .00000134  00000-0  63184-4 0  9997
2 32167  98.4988  86.3587 0174754 154.7503 206.2348 14.26358662377439
0 FENGYUN 1C DEB
1 32166U 99025CTL 21060.91892816  .00003107  00000-0  26083-3 0  9999
2 32166  98.2903 233.8579 0149864 175.8164 184.4346 14.90811285733879
0 FENGYUN 1C DEB
1 32162U 99025CTG 21060.95011503  .00000599  00000-0  20578-3 0  9990
2 32162  99.4953 241.7279 0069216 265.9372  93.3899 14.39004378696646
0 FENGYUN 1C DEB
1 32161U 99025CTF 21060.24073318  .00000106  00000-0  90558-4 0  9993
2 32161  98.6238 219.9891 0148516 112.4689 249.2280 13.99593480389701
0 FENGYUN 1C DEB
1 32160U 99025CTE 21060.55481933  .00000209  00000-0  92849-4 0  9991
2 32160  98.7054 171.6487 0092707  89.4045 271.7759 14.30483261708641
0 FENGYUN 1C DEB
1 32158U 99025CTC 21060.28578387  .00001880  00000-0  50659-3 0  9996
2 32158  99.1534  66.7045 0044948  79.2683 281.3564 14.48675088429942
0 FENGYUN 1C DEB
1 32157U 99025CTB 21060.79668205  .00001077  00000-0  14461-3 0  9999
2 32157  99.0584 254.1455 0146584  18.8211 341.8334 14.74800373729551
0 FENGYUN 1C DEB
1 32155U 99025CSZ 21060.86570171  .00000197  00000-0  96797-4 0  9994
2 32155  99.0760 275.3092 0075105 268.4218  90.8357 14.27481807709905
0 FENGYUN 1C DEB
1 32154U 99025CSY 21060.46582257  .00019597  00000-0  90651-3 0  9993
2 32154  99.0212 299.6564 0033920 342.9567  17.0521 15.19694209417301
0 FENGYUN 1C DEB
1 32153U 99025CSX 21060.58690665  .00000097  00000-0  33513-4 0  9998
2 32153  98.6330 190.8704 0224891  66.2462 296.2139 14.43046360719893
0 FENGYUN 1C DEB
1 32152U 99025CSW 21060.55060534  .00000659  00000-0  23588-3 0  9994
2 32152  98.6466 166.3340 0075880  25.4560 335.0332 14.35688768374253
0 FENGYUN 1C DEB
1 32151U 99025CSV 21061.52627410  .00007530  00000-0  87692-3 0  9994
2 32151  98.9870 166.5749 0044272 196.5958 227.8060 14.84905620727230
0 FENGYUN 1C DEB
1 32150U 99025CSU 21061.32326436  .00000032  00000-0  18872-4 0  9990
2 32150  99.2027 247.4360 0184439 301.0940  57.2269 14.55165213722739
0 FENGYUN 1C DEB
1 32148U 99025CSS 21060.52801893  .00001465  00000-0  14616-3 0  9995
2 32148  99.0664 335.5458 0159409 228.2547 130.4944 14.84642782485957
0 FENGYUN 1C DEB
1 32143U 99025CSM 21060.32683416  .00000066  00000-0  51254-4 0  9993
2 32143  98.5410  85.9900 0107435 102.7269 258.5939 14.16132944711904
0 FENGYUN 1C DEB
1 32142U 99025CSL 21061.55322396  .00002688  00000-0  95249-3 0  9998
2 32142  98.8659 166.3410 0027977 202.2596 157.7376 14.35178567716432
0 FENGYUN 1C DEB
1 32139U 99025CSH 21060.39539212  .00000732  00000-0  22288-3 0  9993
2 32139  98.5502 124.6946 0218953 177.4962 182.7373 14.32182109399288
0 FENGYUN 1C DEB
1 32137U 99025CSF 21060.46668910  .00000579  00000-0  99260-4 0  9991
2 32137  98.4768 136.3764 0285577  51.8901 310.7674 14.49436791717458
0 FENGYUN 1C DEB
1 32136U 99025CSE 21061.09178970  .00000285  00000-0  11962-3 0  9998
2 32136  98.3812 108.3992 0072509 342.6963  17.1751 14.31610338400608
0 FENGYUN 1C DEB
1 32134U 99025CSC 21061.90496735  .00000209  00000-0  94188-4 0  9996
2 32134  98.6917  96.0131 0284029 242.2680 243.4367 14.13398578704351
0 FENGYUN 1C DEB
1 32133U 99025CSB 21061.00700104  .00000041  00000-0  41371-4 0  9994
2 32133  98.5963 119.4683 0037507 100.2723 260.2684 14.16411156702370
0 FENGYUN 1C DEB
1 32132U 99025CSA 21060.94178828  .00000726  00000-0  27918-3 0  9997
2 32132  98.5701 119.7151 0105910  75.0475 286.2405 14.30264573457101
0 FENGYUN 1C DEB
1 32130U 99025CRY 21060.06344150  .00000206  00000-0  90633-4 0  9999
2 32130  98.7158 174.6693 0091832  63.3670 297.6883 14.31205881711963
0 FENGYUN 1C DEB
1 32129U 99025CRX 21061.12321163  .00001165  00000-0  68631-3 0  9991
2 32129  99.0856 132.3571 0092169 287.9252 100.3756 14.07917153695314
0 FENGYUN 1C DEB
1 32128U 99025CRW 21060.88625927  .00000220  00000-0  11430-3 0  9993
2 32128  99.2512 109.2955 0416794 288.5447  67.0866 13.88440502387080
0 FENGYUN 1C DEB
1 32127U 99025CRV 21060.33923190  .00000453  00000-0  55981-3 0  9992
2 32127  99.2338 108.0785 0303132 124.5126 238.5032 13.52104655367565
0 FENGYUN 1C DEB
1 32124U 99025CRS 21060.26586348  .00015335  00000-0  45524-3 0  9998
2 32124  99.0194  74.7695 0052965 188.1922 171.8456 15.33526849418867
0 FENGYUN 1C DEB
1 32123U 99025CRR 21061.32673647  .00000116  00000-0  34251-4 0  9991
2 32123  98.9538  88.9701 0176754 208.9766 162.2341 14.54727988722001
0 FENGYUN 1C DEB
1 32119U 99025CRM 21061.41742708  .00000091  00000-0  96885-4 0  9994
2 32119  99.8625 126.8561 0092455  56.2690 304.7239 13.97373325693019
0 FENGYUN 1C DEB
1 32118U 99025CRL 21061.39514069  .00003476  00000-0  69845-3 0  9992
2 32118 102.4126 257.3418 0032027 259.7137 219.7075 14.62516602728608
0 FENGYUN 1C DEB
1 32117U 99025CRK 21060.10027279  .00000512  00000-0  28559-3 0  9996
2 32117  98.7683 120.7381 0029712  75.1618 285.2843 14.15006647701080
0 FENGYUN 1C DEB
1 32113U 99025CRF 21061.89910961  .00000289  00000-0  21443-3 0  9994
2 32113  99.2091 104.9283 0249768 288.7030  68.7170 13.89299930689446
0 FENGYUN 1C DEB
1 32111U 99025CRD 21061.55046399  .00000073  00000-0  43202-4 0  9999
2 32111  98.5090  89.7808 0124009 315.4356 196.4137 14.28661660710801
0 FENGYUN 1C DEB
1 32110U 99025CRC 21061.31782067  .00000639  00000-0  35102-3 0  9998
2 32110  99.5666  78.0460 0039451 226.4018 144.9440 14.15365267701194
0 FENGYUN 1C DEB
1 32105U 99025CQX 21060.24333895 -.00000231  00000-0 -20837-3 0  9993
2 32105 103.4462 202.4498 0426449  79.0315 285.8453 13.31062359363994
0 FENGYUN 1C DEB
1 32103U 99025CQV 21060.20241014  .00002961  00000-0  48624-3 0  9992
2 32103  96.7173 146.5226 0072264 235.5695 154.1917 14.69487262730609
0 FENGYUN 1C DEB
1 32102U 99025CQU 21061.62048412  .00013450  00000-0  12776-2 0  9998
2 32102  99.3375 196.9856 0084430  36.6845 334.2467 14.90964220691069
0 FENGYUN 1C DEB
1 32101U 99025CQT 21060.54023061  .00000674  00000-0  53263-3 0  9991
2 32101  99.1026 327.9513 0143042 331.6827  27.6610 13.90426382688495
0 FENGYUN 1C DEB
1 32099U 99025CQR 21061.15692854  .00000197  00000-0  12680-3 0  9995
2 32099  98.2882 209.0564 0374988  53.8423 117.6322 13.81778349694868
